[{"OBJECT_NAME":"ONEWEB-0569","OBJECT_ID":"2023-004J","EPOCH":"2026-03-09T17:58:10.125120","MEAN_MOTION":13.13470288,"ECCENTRICITY":0.00025187,"INCLINATION":87.9046,"RA_OF_ASC_NODE":339.9936,"ARG_OF_PERICENTER":93.2896,"MEAN_ANOMALY":266.8521,"EPHEMERIS_TYPE":0,"CLASSIFICATION_TYPE":"U","NORAD_CAT_ID":55148,"ELEMENT_SET_NO":999,"REV_AT_EPOCH":15712,"BSTAR":0.00062117942,"MEAN_MOTION_DOT":2.4e-6,"MEAN_MOTION_DDOT":0},{"OBJECT_NAME":"CZ-4C DEB","OBJECT_ID":"2012-066G","EPOCH":"2026-03-09T00:17:54.744288","MEAN_MOTION":12.93157707,"ECCENTRICITY":0.01642726,"INCLINATION":63.3567,"RA_OF_ASC_NODE":219.4748,"ARG_OF_PERICENTER":343.8029,"MEAN_ANOMALY":15.7755,"EPHEMERIS_TYPE":0,"CLASSIFICATION_TYPE":"U","NORAD_CAT_ID":43404,"ELEMENT_SET_NO":999,"REV_AT_EPOCH":58042,"BSTAR":0.00035966038,"MEAN_MOTION_DOT":2.6e-7,"MEAN_MOTION_DDOT":0}]
